[
    {
        "Altitude(m)": 555737.2585082903,
        "Argument of Periapsis(deg)": 0.033114955553567506,
        "Eccentricity": 0.0,
        "Inclination(deg)": 53.0,
        "Latitude(deg)": -8.489267307934558,
        "Longitude(deg)": -87.56530317248254,
        "Mean Anomaly(deg)": -169.54193566211202,
        "RAAN(deg)": 189.95071684264008,
        "Satellite Name": "Starlink Shell 1 844",
        "Satellite Number": 844,
        "Semi-Major Axis(m)": 6931778.249405717,
        "Time(s)": 950
    },
    {
        "Altitude(m)": 555848.8653847231,
        "Argument of Periapsis(deg)": 0.03346353403307874,
        "Eccentricity": 0.0,
        "Inclination(deg)": 53.0,
        "Latitude(deg)": -8.989539116496989,
        "Longitude(deg)": -87.22124829615902,
        "Mean Anomaly(deg)": -168.91510445855536,
        "RAAN(deg)": 189.9501980725626,
        "Satellite Name": "Starlink Shell 1 844",
        "Satellite Number": 844,
        "Semi-Major Axis(m)": 6931778.249405717,
        "Time(s)": 960
    },
    {
        "Altitude(m)": 555962.912808617,
        "Argument of Periapsis(deg)": 0.03381211251258998,
        "Eccentricity": 0.0,
        "Inclination(deg)": 53.0,
        "Latitude(deg)": -9.489381247094954,
        "Longitude(deg)": -86.87614551169202,
        "Mean Anomaly(deg)": -168.28827325499864,
        "RAAN(deg)": 189.94967930248512,
        "Satellite Name": "Starlink Shell 1 844",
        "Satellite Number": 844,
        "Semi-Major Axis(m)": 6931778.249405717,
        "Time(s)": 970
    },
    {
        "Altitude(m)": 556079.3687771528,
        "Argument of Periapsis(deg)": 0.034160690992101214,
        "Eccentricity": 0.0,
        "Inclination(deg)": 53.0,
        "Latitude(deg)": -9.988768852360527,
        "Longitude(deg)": -86.52993310872994,
        "Mean Anomaly(deg)": -167.66144205144195,
        "RAAN(deg)": 189.9491605324077,
        "Satellite Name": "Starlink Shell 1 844",
        "Satellite Number": 844,
        "Semi-Major Axis(m)": 6931778.249405717,
        "Time(s)": 980
    },
    {
        "Altitude(m)": 556198.2000741552,
        "Argument of Periapsis(deg)": 0.034509269471612446,
        "Eccentricity": 0.0,
        "Inclination(deg)": 53.0,
        "Latitude(deg)": -10.487676855906736,
        "Longitude(deg)": -86.18254839525105,
        "Mean Anomaly(deg)": -167.0346108478852,
        "RAAN(deg)": 189.94864176233023,
        "Satellite Name": "Starlink Shell 1 844",
        "Satellite Number": 844,
        "Semi-Major Axis(m)": 6931778.249405717,
        "Time(s)": 990
    }
]